{
"type": "FeatureCollection",
"name": "plz_features",
"crs": { "type": "name", "properties": { "name": "urn:ogc:def:crs:OGC:1.3:CRS84" } },
"features": [
{ "type": "Feature", "properties": { "PLZ": "10115", "total_co2_tons": 83249.58, "population_density": 14496.32, "sealed_surface_ratio": 0.8272, "total_canopy_co2_absorption_tons": 2.4742415885132187, "total_current_storage_tons": 58.955355048969672, "tree_count": 643, "mean_tree_age": 32.499222395023331, "mean_trunk_diameter_cm": 29.045908349809888, "Acer (Ahorn)": 138, "Betula": 97, "Fraxinus": 67, "Platanus": 86, "Quercus (Eiche)": 96, "Tilia (Linde)": 159, "cluster_label": 0, "priority_score": 2.433740809817948, "priority_rank": 8 }, "geometry": { "type": "Polygon", "coordinates": [ [ [ 13.088, 52.338 ], [ 13.200166666666666, 52.338 ], [ 13.200166666666666, 52.4054 ], [ 13.088, 52.4054 ], [ 13.088, 52.338 ] ] ] } },
{ "type": "Feature", "properties": { "PLZ": "10116", "total_co2_tons": 63488.96, "population_density": 9302.62, "sealed_surface_ratio": 0.4841, "total_canopy_co2_absorption_tons": 3.2791511356385628, "total_current_storage_tons": 74.373745415203288, "tree_count": 872, "mean_tree_age": 31.550458715596331, "mean_trunk_diameter_cm": 28.657220726804443, "Acer (Ahorn)": 181, "Betula": 127, "Fraxinus": 74, "Platanus": 126, "Quercus (Eiche)": 140, "Tilia (Linde)": 224, "cluster_label": 2, "priority_score": -1.4443717027305485, "priority_rank": 21 }, "geometry": { "type": "Polygon", "coordinates": [ [ [ 13.200166666666666, 52.338 ], [ 13.312333333333333, 52.338 ], [ 13.312333333333333, 52.4054 ], [ 13.200166666666666, 52.4054 ], [ 13.200166666666666, 52.338 ] ] ] } },
{ "type": "Feature", "properties": { "PLZ": "10117", "total_co2_tons": 90390.62, "population_density": 15808.27, "sealed_surface_ratio": 0.749, "total_canopy_co2_absorption_tons": 2.4212947845564665, "total_current_storage_tons": 56.961454488955674, "tree_count": 616, "mean_tree_age": 32.405844155844157, "mean_trunk_diameter_cm": 29.264814420559578, "Acer (Ahorn)": 133, "Betula": 74, "Fraxinus": 57, "Platanus": 95, "Quercus (Eiche)": 112, "Tilia (Linde)": 145, "cluster_label": 0, "priority_score": 2.6103087583848614, "priority_rank": 7 }, "geometry": { "type": "Polygon", "coordinates": [ [ [ 13.312333333333333, 52.338 ], [ 13.4245, 52.338 ], [ 13.4245, 52.4054 ], [ 13.312333333333333, 52.4054 ], [ 13.312333333333333, 52.338 ] ] ] } },
{ "type": "Feature", "properties": { "PLZ": "10118", "total_co2_tons": 81830.85, "population_density": 13309.2, "sealed_surface_ratio": 0.6301, "total_canopy_co2_absorption_tons": 2.6366911772568202, "total_current_storage_tons": 63.90646826065489, "tree_count": 676, "mean_tree_age": 33.152366863905328, "mean_trunk_diameter_cm": 29.296648794871828, "Acer (Ahorn)": 156, "Betula": 98, "Fraxinus": 82, "Platanus": 91, "Quercus (Eiche)": 96, "Tilia (Linde)": 153, "cluster_label": 3, "priority_score": 1.2635946728821916, "priority_rank": 14 }, "geometry": { "type": "Polygon", "coordinates": [ [ [ 13.4245, 52.338 ], [ 13.536666666666665, 52.338 ], [ 13.536666666666665, 52.4054 ], [ 13.4245, 52.4054 ], [ 13.4245, 52.338 ] ] ] } },
{ "type": "Feature", "properties": { "PLZ": "10119", "total_co2_tons": 49085.74, "population_density": 3959.75, "sealed_surface_ratio": 0.3132, "total_canopy_co2_absorption_tons": 4.1584045560182963, "total_current_storage_tons": 98.940807333117817, "tree_count": 1040, "mean_tree_age": 33.3, "mean_trunk_diameter_cm": 29.600874242428738, "Acer (Ahorn)": 228, "Betula": 142, "Fraxinus": 95, "Platanus": 131, "Quercus (Eiche)": 197, "Tilia (Linde)": 247, "cluster_label": 1, "priority_score": -4.3922911188091422, "priority_rank": 29 }, "geometry": { "type": "Polygon", "coordinates": [ [ [ 13.536666666666665, 52.338 ], [ 13.648833333333332, 52.338 ], [ 13.648833333333332, 52.4054 ], [ 13.536666666666665, 52.4054 ], [ 13.536666666666665, 52.338 ] ] ] } },
{ "type": "Feature", "properties": { "PLZ": "10120", "total_co2_tons": 103200.06, "population_density": 17622.15, "sealed_surface_ratio": 0.9064, "total_canopy_co2_absorption_tons": 2.0682864019453957, "total_current_storage_tons": 49.193883035219798, "tree_count": 541, "mean_tree_age": 32.121996303142332, "mean_trunk_diameter_cm": 28.896592936373121, "Acer (Ahorn)": 128, "Betula": 63, "Fraxinus": 49, "Platanus": 76, "Quercus (Eiche)": 88, "Tilia (Linde)": 137, "cluster_label": 0, "priority_score": 4.5866694382950115, "priority_rank": 1 }, "geometry": { "type": "Polygon", "coordinates": [ [ [ 13.648833333333332, 52.338 ], [ 13.761, 52.338 ], [ 13.761, 52.4054 ], [ 13.648833333333332, 52.4054 ], [ 13.648833333333332, 52.338 ] ] ] } },
{ "type": "Feature", "properties": { "PLZ": "10121", "total_co2_tons": 83307.83, "population_density": 14297.67, "sealed_surface_ratio": 0.7062, "total_canopy_co2_absorption_tons": 2.5389370783364402, "total_current_storage_tons": 61.220701104564782, "tree_count": 634, "mean_tree_age": 33.539432176656149, "mean_trunk_diameter_cm": 29.699138435117966, "Acer (Ahorn)": 155, "Betula": 81, "Fraxinus": 67, "Platanus": 88, "Quercus (Eiche)": 94, "Tilia (Linde)": 149, "cluster_label": 3, "priority_score": 1.8251947290748129, "priority_rank": 10 }, "geometry": { "type": "Polygon", "coordinates": [ [ [ 13.088, 52.4054 ], [ 13.200166666666666, 52.4054 ], [ 13.200166666666666, 52.4728 ], [ 13.088, 52.4728 ], [ 13.088, 52.4054 ] ] ] } },
{ "type": "Feature", "properties": { "PLZ": "10122", "total_co2_tons": 82892.8, "population_density": 14684.0, "sealed_surface_ratio": 0.6859, "total_canopy_co2_absorption_tons": 2.6792383989384772, "total_current_storage_tons": 63.556928236765714, "tree_count": 678, "mean_tree_age": 33.166666666666664, "mean_trunk_diameter_cm": 29.53600440695352, "Acer (Ahorn)": 135, "Betula": 116, "Fraxinus": 70, "Platanus": 87, "Quercus (Eiche)": 111, "Tilia (Linde)": 159, "cluster_label": 3, "priority_score": 1.4961956540630907, "priority_rank": 13 }, "geometry": { "type": "Polygon", "coordinates": [ [ [ 13.200166666666666, 52.4054 ], [ 13.312333333333333, 52.4054 ], [ 13.312333333333333, 52.4728 ], [ 13.200166666666666, 52.4728 ], [ 13.200166666666666, 52.4054 ] ] ] } },
{ "type": "Feature", "properties": { "PLZ": "10123", "total_co2_tons": 48823.11, "population_density": 4485.76, "sealed_surface_ratio": 0.2631, "total_canopy_co2_absorption_tons": 3.960046171708131, "total_current_storage_tons": 93.842801927962498, "tree_count": 1017, "mean_tree_age": 32.098328416912487, "mean_trunk_diameter_cm": 29.101133541034709, "Acer (Ahorn)": 215, "Betula": 128, "Fraxinus": 106, "Platanus": 142, "Quercus (Eiche)": 175, "Tilia (Linde)": 251, "cluster_label": 1, "priority_score": -4.310573733437959, "priority_rank": 27 }, "geometry": { "type": "Polygon", "coordinates": [ [ [ 13.312333333333333, 52.4054 ], [ 13.4245, 52.4054 ], [ 13.4245, 52.4728 ], [ 13.312333333333333, 52.4728 ], [ 13.312333333333333, 52.4054 ] ] ] } },
{ "type": "Feature", "properties": { "PLZ": "10124", "total_co2_tons": 66866.09, "population_density": 9480.98, "sealed_surface_ratio": 0.5443, "total_canopy_co2_absorption_tons": 3.1745686394849537, "total_current_storage_tons": 72.670822360975265, "tree_count": 827, "mean_tree_age": 31.776299879081016, "mean_trunk_diameter_cm": 28.97888503334525, "Acer (Ahorn)": 173, "Betula": 107, "Fraxinus": 79, "Platanus": 134, "Quercus (Eiche)": 136, "Tilia (Linde)": 198, "cluster_label": 2, "priority_score": -0.82636181663473562, "priority_rank": 19 }, "geometry": { "type": "Polygon", "coordinates": [ [ [ 13.4245, 52.4054 ], [ 13.536666666666665, 52.4054 ], [ 13.536666666666665, 52.4728 ], [ 13.4245, 52.4728 ], [ 13.4245, 52.4054 ] ] ] } },
{ "type": "Feature", "properties": { "PLZ": "10125", "total_co2_tons": 57950.07, "population_density": 8247.37, "sealed_surface_ratio": 0.4977, "total_canopy_co2_absorption_tons": 3.486288851190003, "total_current_storage_tons": 84.364247443333099, "tree_count": 882, "mean_tree_age": 33.270975056689345, "mean_trunk_diameter_cm": 29.490908401639548, "Acer (Ahorn)": 191, "Betula": 126, "Fraxinus": 79, "Platanus": 143, "Quercus (Eiche)": 121, "Tilia (Linde)": 222, "cluster_label": 2, "priority_score": -2.0388369964606303, "priority_rank": 23 }, "geometry": { "type": "Polygon", "coordinates": [ [ [ 13.536666666666665, 52.4054 ], [ 13.648833333333332, 52.4054 ], [ 13.648833333333332, 52.4728 ], [ 13.536666666666665, 52.4728 ], [ 13.536666666666665, 52.4054 ] ] ] } },
{ "type": "Feature", "properties": { "PLZ": "10126", "total_co2_tons": 91397.47, "population_density": 16864.86, "sealed_surface_ratio": 0.8457, "total_canopy_co2_absorption_tons": 2.1932940045380427, "total_current_storage_tons": 50.368984483868232, "tree_count": 568, "mean_tree_age": 32.491197183098592, "mean_trunk_diameter_cm": 29.132653911053119, "Acer (Ahorn)": 145, "Betula": 67, "Fraxinus": 66, "Platanus": 82, "Quercus (Eiche)": 93, "Tilia (Linde)": 115, "cluster_label": 0, "priority_score": 3.4338959234785404, "priority_rank": 2 }, "geometry": { "type": "Polygon", "coordinates": [ [ [ 13.648833333333332, 52.4054 ], [ 13.761, 52.4054 ], [ 13.761, 52.4728 ], [ 13.648833333333332, 52.4728 ], [ 13.648833333333332, 52.4054 ] ] ] } },
{ "type": "Feature", "properties": { "PLZ": "10127", "total_co2_tons": 72902.2, "population_density": 12479.91, "sealed_surface_ratio": 0.6031, "total_canopy_co2_absorption_tons": 2.7531069684538658, "total_current_storage_tons": 65.050922895548965, "tree_count": 702, "mean_tree_age": 32.789173789173788, "mean_trunk_diameter_cm": 29.293473238537125, "Acer (Ahorn)": 179, "Betula": 94, "Fraxinus": 76, "Platanus": 86, "Quercus (Eiche)": 110, "Tilia (Linde)": 157, "cluster_label": 3, "priority_score": 0.43742335211794042, "priority_rank": 16 }, "geometry": { "type": "Polygon", "coordinates": [ [ [ 13.088, 52.4728 ], [ 13.200166666666666, 52.4728 ], [ 13.200166666666666, 52.5402 ], [ 13.088, 52.5402 ], [ 13.088, 52.4728 ] ] ] } },
{ "type": "Feature", "properties": { "PLZ": "10128", "total_co2_tons": 91072.04, "population_density": 15252.81, "sealed_surface_ratio": 0.7632, "total_canopy_co2_absorption_tons": 2.4554180191796924, "total_current_storage_tons": 57.487362091110349, "tree_count": 651, "mean_tree_age": 31.615975422427034, "mean_trunk_diameter_cm": 28.628428444868565, "Acer (Ahorn)": 149, "Betula": 96, "Fraxinus": 64, "Platanus": 105, "Quercus (Eiche)": 110, "Tilia (Linde)": 127, "cluster_label": 0, "priority_score": 2.6576523886342196, "priority_rank": 6 }, "geometry": { "type": "Polygon", "coordinates": [ [ [ 13.200166666666666, 52.4728 ], [ 13.312333333333333, 52.4728 ], [ 13.312333333333333, 52.5402 ], [ 13.200166666666666, 52.5402 ], [ 13.200166666666666, 52.4728 ] ] ] } },
{ "type": "Feature", "properties": { "PLZ": "10129", "total_co2_tons": 66715.9, "population_density": 9372.92, "sealed_surface_ratio": 0.5131, "total_canopy_co2_absorption_tons": 3.3132506635126777, "total_current_storage_tons": 79.235428908006014, "tree_count": 829, "mean_tree_age": 32.965018094089267, "mean_trunk_diameter_cm": 29.578004714540533, "Acer (Ahorn)": 184, "Betula": 117, "Fraxinus": 76, "Platanus": 126, "Quercus (Eiche)": 138, "Tilia (Linde)": 188, "cluster_label": 2, "priority_score": -1.1831481389351222, "priority_rank": 20 }, "geometry": { "type": "Polygon", "coordinates": [ [ [ 13.312333333333333, 52.4728 ], [ 13.4245, 52.4728 ], [ 13.4245, 52.5402 ], [ 13.312333333333333, 52.5402 ], [ 13.312333333333333, 52.4728 ] ] ] } },
{ "type": "Feature", "properties": { "PLZ": "10130", "total_co2_tons": 56172.73, "population_density": 6022.2, "sealed_surface_ratio": 0.379, "total_canopy_co2_absorption_tons": 3.4303418363125755, "total_current_storage_tons": 78.681599265278749, "tree_count": 923, "mean_tree_age": 31.37703141928494, "mean_trunk_diameter_cm": 28.409262475519061, "Acer (Ahorn)": 203, "Betula": 132, "Fraxinus": 94, "Platanus": 123, "Quercus (Eiche)": 146, "Tilia (Linde)": 225, "cluster_label": 2, "priority_score": -2.5588417775305157, "priority_rank": 24 }, "geometry": { "type": "Polygon", "coordinates": [ [ [ 13.4245, 52.4728 ], [ 13.536666666666665, 52.4728 ], [ 13.536666666666665, 52.5402 ], [ 13.4245, 52.5402 ], [ 13.4245, 52.4728 ] ] ] } },
{ "type": "Feature", "properties": { "PLZ": "10131", "total_co2_tons": 72600.91, "population_density": 11096.06, "sealed_surface_ratio": 0.6225, "total_canopy_co2_absorption_tons": 3.1918203789528281, "total_current_storage_tons": 73.943128102952187, "tree_count": 852, "mean_tree_age": 31.54225352112676, "mean_trunk_diameter_cm": 28.534906238848532, "Acer (Ahorn)": 170, "Betula": 134, "Fraxinus": 86, "Platanus": 123, "Quercus (Eiche)": 140, "Tilia (Linde)": 199, "cluster_label": 2, "priority_score": -0.18194690409954842, "priority_rank": 17 }, "geometry": { "type": "Polygon", "coordinates": [ [ [ 13.536666666666665, 52.4728 ], [ 13.648833333333332, 52.4728 ], [ 13.648833333333332, 52.5402 ], [ 13.536666666666665, 52.5402 ], [ 13.536666666666665, 52.4728 ] ] ] } },
{ "type": "Feature", "properties": { "PLZ": "10132", "total_co2_tons": 44272.99, "population_density": 3489.17, "sealed_surface_ratio": 0.2741, "total_canopy_co2_absorption_tons": 4.1119880404144782, "total_current_storage_tons": 97.580541725008871, "tree_count": 1067, "mean_tree_age": 32.126522961574508, "mean_trunk_diameter_cm": 28.955247300254616, "Acer (Ahorn)": 228, "Betula": 159, "Fraxinus": 107, "Platanus": 134, "Quercus (Eiche)": 187, "Tilia (Linde)": 252, "cluster_label": 1, "priority_score": -4.7712649299586287, "priority_rank": 30 }, "geometry": { "type": "Polygon", "coordinates": [ [ [ 13.648833333333332, 52.4728 ], [ 13.761, 52.4728 ], [ 13.761, 52.5402 ], [ 13.648833333333332, 52.5402 ], [ 13.648833333333332, 52.4728 ] ] ] } },
{ "type": "Feature", "properties": { "PLZ": "10133", "total_co2_tons": 92770.74, "population_density": 15328.28, "sealed_surface_ratio": 0.7887, "total_canopy_co2_absorption_tons": 2.3262647011196385, "total_current_storage_tons": 53.713293591499962, "tree_count": 608, "mean_tree_age": 32.236842105263158, "mean_trunk_diameter_cm": 29.054583251089909, "Acer (Ahorn)": 127, "Betula": 94, "Fraxinus": 48, "Platanus": 88, "Quercus (Eiche)": 99, "Tilia (Linde)": 152, "cluster_label": 0, "priority_score": 3.0675601511949968, "priority_rank": 4 }, "geometry": { "type": "Polygon", "coordinates": [ [ [ 13.088, 52.5402 ], [ 13.200166666666666, 52.5402 ], [ 13.200166666666666, 52.6076 ], [ 13.088, 52.6076 ], [ 13.088, 52.5402 ] ] ] } },
{ "type": "Feature", "properties": { "PLZ": "10134", "total_co2_tons": 76078.52, "population_density": 12290.8, "sealed_surface_ratio": 0.6319, "total_canopy_co2_absorption_tons": 2.5556656870735632, "total_current_storage_tons": 61.286578884304021, "tree_count": 648, "mean_tree_age": 32.955246913580247, "mean_trunk_diameter_cm": 29.479946336439518, "Acer (Ahorn)": 147, "Betula": 86, "Fraxinus": 79, "Platanus": 84, "Quercus (Eiche)": 93, "Tilia (Linde)": 159, "cluster_label": 3, "priority_score": 1.0554862333883275, "priority_rank": 15 }, "geometry": { "type": "Polygon", "coordinates": [ [ [ 13.200166666666666, 52.5402 ], [ 13.312333333333333, 52.5402 ], [ 13.312333333333333, 52.6076 ], [ 13.200166666666666, 52.6076 ], [ 13.200166666666666, 52.5402 ] ] ] } },
{ "type": "Feature", "properties": { "PLZ": "10135", "total_co2_tons": 87153.29, "population_density": 14250.36, "sealed_surface_ratio": 0.7244, "total_canopy_co2_absorption_tons": 2.4037947090893419, "total_current_storage_tons": 55.581207682751455, "tree_count": 647, "mean_tree_age": 31.454404945904173, "mean_trunk_diameter_cm": 28.599698473550436, "Acer (Ahorn)": 146, "Betula": 86, "Fraxinus": 69, "Platanus": 95, "Quercus (Eiche)": 98, "Tilia (Linde)": 153, "cluster_label": 0, "priority_score": 2.341199071326562, "priority_rank": 9 }, "geometry": { "type": "Polygon", "coordinates": [ [ [ 13.312333333333333, 52.5402 ], [ 13.4245, 52.5402 ], [ 13.4245, 52.6076 ], [ 13.312333333333333, 52.6076 ], [ 13.312333333333333, 52.5402 ] ] ] } },
{ "type": "Feature", "properties": { "PLZ": "10136", "total_co2_tons": 59207.2, "population_density": 7995.15, "sealed_surface_ratio": 0.4816, "total_canopy_co2_absorption_tons": 3.1630734667518552, "total_current_storage_tons": 72.621408795396391, "tree_count": 847, "mean_tree_age": 31.590318772136953, "mean_trunk_diameter_cm": 28.579071720823443, "Acer (Ahorn)": 203, "Betula": 114, "Fraxinus": 72, "Platanus": 121, "Quercus (Eiche)": 140, "Tilia (Linde)": 197, "cluster_label": 2, "priority_score": -1.5286287420166162, "priority_rank": 22 }, "geometry": { "type": "Polygon", "coordinates": [ [ [ 13.4245, 52.5402 ], [ 13.536666666666665, 52.5402 ], [ 13.536666666666665, 52.6076 ], [ 13.4245, 52.6076 ], [ 13.4245, 52.5402 ] ] ] } },
{ "type": "Feature", "properties": { "PLZ": "10137", "total_co2_tons": 93107.44, "population_density": 17545.82, "sealed_surface_ratio": 0.774, "total_canopy_co2_absorption_tons": 2.1103888616609123, "total_current_storage_tons": 50.255663658748539, "tree_count": 528, "mean_tree_age": 32.909090909090907, "mean_trunk_diameter_cm": 29.499141095301987, "Acer (Ahorn)": 105, "Betula": 71, "Fraxinus": 56, "Platanus": 76, "Quercus (Eiche)": 82, "Tilia (Linde)": 138, "cluster_label": 0, "priority_score": 3.3617573801197738, "priority_rank": 3 }, "geometry": { "type": "Polygon", "coordinates": [ [ [ 13.536666666666665, 52.5402 ], [ 13.648833333333332, 52.5402 ], [ 13.648833333333332, 52.6076 ], [ 13.536666666666665, 52.6076 ], [ 13.536666666666665, 52.5402 ] ] ] } },
{ "type": "Feature", "properties": { "PLZ": "10138", "total_co2_tons": 90664.23, "population_density": 16343.38, "sealed_surface_ratio": 0.7809, "total_canopy_co2_absorption_tons": 2.3808349131232167, "total_current_storage_tons": 56.531007835878896, "tree_count": 618, "mean_tree_age": 32.121359223300971, "mean_trunk_diameter_cm": 28.93251807672123, "Acer (Ahorn)": 123, "Betula": 91, "Fraxinus": 62, "Platanus": 82, "Quercus (Eiche)": 95, "Tilia (Linde)": 165, "cluster_label": 0, "priority_score": 2.8243789561879353, "priority_rank": 5 }, "geometry": { "type": "Polygon", "coordinates": [ [ [ 13.648833333333332, 52.5402 ], [ 13.761, 52.5402 ], [ 13.761, 52.6076 ], [ 13.648833333333332, 52.6076 ], [ 13.648833333333332, 52.5402 ] ] ] } },
{ "type": "Feature", "properties": { "PLZ": "10139", "total_co2_tons": 80238.67, "population_density": 14564.94, "sealed_surface_ratio": 0.6995, "total_canopy_co2_absorption_tons": 2.5696316414014095, "total_current_storage_tons": 60.290038488364459, "tree_count": 673, "mean_tree_age": 31.728083209509659, "mean_trunk_diameter_cm": 28.685629464029606, "Acer (Ahorn)": 137, "Betula": 80, "Fraxinus": 67, "Platanus": 90, "Quercus (Eiche)": 122, "Tilia (Linde)": 177, "cluster_label": 3, "priority_score": 1.5666318162055659, "priority_rank": 11 }, "geometry": { "type": "Polygon", "coordinates": [ [ [ 13.088, 52.6076 ], [ 13.200166666666666, 52.6076 ], [ 13.200166666666666, 52.675 ], [ 13.088, 52.675 ], [ 13.088, 52.6076 ] ] ] } },
{ "type": "Feature", "properties": { "PLZ": "10140", "total_co2_tons": 51692.23, "population_density": 5516.9, "sealed_surface_ratio": 0.3152, "total_canopy_co2_absorption_tons": 3.9527100951787126, "total_current_storage_tons": 92.570028948605099, "tree_count": 1025, "mean_tree_age": 32.170731707317074, "mean_trunk_diameter_cm": 29.082138742175403, "Acer (Ahorn)": 228, "Betula": 134, "Fraxinus": 97, "Platanus": 158, "Quercus (Eiche)": 158, "Tilia (Linde)": 250, "cluster_label": 1, "priority_score": -3.9084740410059995, "priority_rank": 25 }, "geometry": { "type": "Polygon", "coordinates": [ [ [ 13.200166666666666, 52.6076 ], [ 13.312333333333333, 52.6076 ], [ 13.312333333333333, 52.675 ], [ 13.200166666666666, 52.675 ], [ 13.200166666666666, 52.6076 ] ] ] } },
{ "type": "Feature", "properties": { "PLZ": "10141", "total_co2_tons": 64879.99, "population_density": 9734.18, "sealed_surface_ratio": 0.5086, "total_canopy_co2_absorption_tons": 2.9481734585240318, "total_current_storage_tons": 69.072103072605245, "tree_count": 768, "mean_tree_age": 31.97265625, "mean_trunk_diameter_cm": 28.926942780621456, "Acer (Ahorn)": 165, "Betula": 123, "Fraxinus": 57, "Platanus": 111, "Quercus (Eiche)": 122, "Tilia (Linde)": 190, "cluster_label": 2, "priority_score": -0.74257656721075582, "priority_rank": 18 }, "geometry": { "type": "Polygon", "coordinates": [ [ [ 13.312333333333333, 52.6076 ], [ 13.4245, 52.6076 ], [ 13.4245, 52.675 ], [ 13.312333333333333, 52.675 ], [ 13.312333333333333, 52.6076 ] ] ] } },
{ "type": "Feature", "properties": { "PLZ": "10142", "total_co2_tons": 45033.57, "population_density": 3178.96, "sealed_surface_ratio": 0.3247, "total_canopy_co2_absorption_tons": 3.9969486402439633, "total_current_storage_tons": 93.172073932838998, "tree_count": 1025, "mean_tree_age": 32.483902439024391, "mean_trunk_diameter_cm": 29.237990711507482, "Acer (Ahorn)": 236, "Betula": 123, "Fraxinus": 106, "Platanus": 146, "Quercus (Eiche)": 170, "Tilia (Linde)": 244, "cluster_label": 1, "priority_score": -4.3330604937293176, "priority_rank": 28 }, "geometry": { "type": "Polygon", "coordinates": [ [ [ 13.4245, 52.6076 ], [ 13.536666666666665, 52.6076 ], [ 13.536666666666665, 52.675 ], [ 13.4245, 52.675 ], [ 13.4245, 52.6076 ] ] ] } },
{ "type": "Feature", "properties": { "PLZ": "10143", "total_co2_tons": 48798.28, "population_density": 4891.49, "sealed_surface_ratio": 0.2779, "total_canopy_co2_absorption_tons": 3.9612601865436097, "total_current_storage_tons": 92.013867318376555, "tree_count": 1031, "mean_tree_age": 31.820562560620758, "mean_trunk_diameter_cm": 29.05996440299046, "Acer (Ahorn)": 216, "Betula": 139, "Fraxinus": 111, "Platanus": 128, "Quercus (Eiche)": 174, "Tilia (Linde)": 263, "cluster_label": 1, "priority_score": -4.2514107317224585, "priority_rank": 26 }, "geometry": { "type": "Polygon", "coordinates": [ [ [ 13.536666666666665, 52.6076 ], [ 13.648833333333332, 52.6076 ], [ 13.648833333333332, 52.675 ], [ 13.536666666666665, 52.675 ], [ 13.536666666666665, 52.6076 ] ] ] } },
{ "type": "Feature", "properties": { "PLZ": "10144", "total_co2_tons": 83979.1, "population_density": 13087.26, "sealed_surface_ratio": 0.71, "total_canopy_co2_absorption_tons": 2.77712848103543, "total_current_storage_tons": 66.289016480494325, "tree_count": 728, "mean_tree_age": 31.891483516483518, "mean_trunk_diameter_cm": 28.889293775547781, "Acer (Ahorn)": 161, "Betula": 95, "Fraxinus": 74, "Platanus": 113, "Quercus (Eiche)": 105, "Tilia (Linde)": 180, "cluster_label": 3, "priority_score": 1.510098359110206, "priority_rank": 12 }, "geometry": { "type": "Polygon", "coordinates": [ [ [ 13.648833333333332, 52.6076 ], [ 13.761, 52.6076 ], [ 13.761, 52.675 ], [ 13.648833333333332, 52.675 ], [ 13.648833333333332, 52.6076 ] ] ] } }
]
}
