{
"type": "FeatureCollection",
"name": "berlin_plz",
"crs": { "type": "name", "properties": { "name": "urn:ogc:def:crs:OGC:1.3:CRS84" } },
"features": [
{ "type": "Feature", "properties": { "PLZ": "10115" }, "geometry": { "type": "Polygon", "coordinates": [ [ [ 13.088, 52.338 ], [ 13.200166666666666, 52.338 ], [ 13.200166666666666, 52.4054 ], [ 13.088, 52.4054 ], [ 13.088, 52.338 ] ] ] } },
{ "type": "Feature", "properties": { "PLZ": "10116" }, "geometry": { "type": "Polygon", "coordinates": [ [ [ 13.200166666666666, 52.338 ], [ 13.312333333333333, 52.338 ], [ 13.312333333333333, 52.4054 ], [ 13.200166666666666, 52.4054 ], [ 13.200166666666666, 52.338 ] ] ] } },
{ "type": "Feature", "properties": { "PLZ": "10117" }, "geometry": { "type": "Polygon", "coordinates": [ [ [ 13.312333333333333, 52.338 ], [ 13.4245, 52.338 ], [ 13.4245, 52.4054 ], [ 13.312333333333333, 52.4054 ], [ 13.312333333333333, 52.338 ] ] ] } },
{ "type": "Feature", "properties": { "PLZ": "10118" }, "geometry": { "type": "Polygon", "coordinates": [ [ [ 13.4245, 52.338 ], [ 13.536666666666665, 52.338 ], [ 13.536666666666665, 52.4054 ], [ 13.4245, 52.4054 ], [ 13.4245, 52.338 ] ] ] } },
{ "type": "Feature", "properties": { "PLZ": "10119" }, "geometry": { "type": "Polygon", "coordinates": [ [ [ 13.536666666666665, 52.338 ], [ 13.648833333333332, 52.338 ], [ 13.648833333333332, 52.4054 ], [ 13.536666666666665, 52.4054 ], [ 13.536666666666665, 52.338 ] ] ] } },
{ "type": "Feature", "properties": { "PLZ": "10120" }, "geometry": { "type": "Polygon", "coordinates": [ [ [ 13.648833333333332, 52.338 ], [ 13.761, 52.338 ], [ 13.761, 52.4054 ], [ 13.648833333333332, 52.4054 ], [ 13.648833333333332, 52.338 ] ] ] } },
{ "type": "Feature", "properties": { "PLZ": "10121" }, "geometry": { "type": "Polygon", "coordinates": [ [ [ 13.088, 52.4054 ], [ 13.200166666666666, 52.4054 ], [ 13.200166666666666, 52.4728 ], [ 13.088, 52.4728 ], [ 13.088, 52.4054 ] ] ] } },
{ "type": "Feature", "properties": { "PLZ": "10122" }, "geometry": { "type": "Polygon", "coordinates": [ [ [ 13.200166666666666, 52.4054 ], [ 13.312333333333333, 52.4054 ], [ 13.312333333333333, 52.4728 ], [ 13.200166666666666, 52.4728 ], [ 13.200166666666666, 52.4054 ] ] ] } },
{ "type": "Feature", "properties": { "PLZ": "10123" }, "geometry": { "type": "Polygon", "coordinates": [ [ [ 13.312333333333333, 52.4054 ], [ 13.4245, 52.4054 ], [ 13.4245, 52.4728 ], [ 13.312333333333333, 52.4728 ], [ 13.312333333333333, 52.4054 ] ] ] } },
{ "type": "Feature", "properties": { "PLZ": "10124" }, "geometry": { "type": "Polygon", "coordinates": [ [ [ 13.4245, 52.4054 ], [ 13.536666666666665, 52.4054 ], [ 13.536666666666665, 52.4728 ], [ 13.4245, 52.4728 ], [ 13.4245, 52.4054 ] ] ] } },
{ "type": "Feature", "properties": { "PLZ": "10125" }, "geometry": { "type": "Polygon", "coordinates": [ [ [ 13.536666666666665, 52.4054 ], [ 13.648833333333332, 52.4054 ], [ 13.648833333333332, 52.4728 ], [ 13.536666666666665, 52.4728 ], [ 13.536666666666665, 52.4054 ] ] ] } },
{ "type": "Feature", "properties": { "PLZ": "10126" }, "geometry": { "type": "Polygon", "coordinates": [ [ [ 13.648833333333332, 52.4054 ], [ 13.761, 52.4054 ], [ 13.761, 52.4728 ], [ 13.648833333333332, 52.4728 ], [ 13.648833333333332, 52.4054 ] ] ] } },
{ "type": "Feature", "properties": { "PLZ": "10127" }, "geometry": { "type": "Polygon", "coordinates": [ [ [ 13.088, 52.4728 ], [ 13.200166666666666, 52.4728 ], [ 13.200166666666666, 52.5402 ], [ 13.088, 52.5402 ], [ 13.088, 52.4728 ] ] ] } },
{ "type": "Feature", "properties": { "PLZ": "10128" }, "geometry": { "type": "Polygon", "coordinates": [ [ [ 13.200166666666666, 52.4728 ], [ 13.312333333333333, 52.4728 ], [ 13.312333333333333, 52.5402 ], [ 13.200166666666666, 52.5402 ], [ 13.200166666666666, 52.4728 ] ] ] } },
{ "type": "Feature", "properties": { "PLZ": "10129" }, "geometry": { "type": "Polygon", "coordinates": [ [ [ 13.312333333333333, 52.4728 ], [ 13.4245, 52.4728 ], [ 13.4245, 52.5402 ], [ 13.312333333333333, 52.5402 ], [ 13.312333333333333, 52.4728 ] ] ] } },
{ "type": "Feature", "properties": { "PLZ": "10130" }, "geometry": { "type": "Polygon", "coordinates": [ [ [ 13.4245, 52.4728 ], [ 13.536666666666665, 52.4728 ], [ 13.536666666666665, 52.5402 ], [ 13.4245, 52.5402 ], [ 13.4245, 52.4728 ] ] ] } },
{ "type": "Feature", "properties": { "PLZ": "10131" }, "geometry": { "type": "Polygon", "coordinates": [ [ [ 13.536666666666665, 52.4728 ], [ 13.648833333333332, 52.4728 ], [ 13.648833333333332, 52.5402 ], [ 13.536666666666665, 52.5402 ], [ 13.536666666666665, 52.4728 ] ] ] } },
{ "type": "Feature", "properties": { "PLZ": "10132" }, "geometry": { "type": "Polygon", "coordinates": [ [ [ 13.648833333333332, 52.4728 ], [ 13.761, 52.4728 ], [ 13.761, 52.5402 ], [ 13.648833333333332, 52.5402 ], [ 13.648833333333332, 52.4728 ] ] ] } },
{ "type": "Feature", "properties": { "PLZ": "10133" }, "geometry": { "type": "Polygon", "coordinates": [ [ [ 13.088, 52.5402 ], [ 13.200166666666666, 52.5402 ], [ 13.200166666666666, 52.6076 ], [ 13.088, 52.6076 ], [ 13.088, 52.5402 ] ] ] } },
{ "type": "Feature", "properties": { "PLZ": "10134" }, "geometry": { "type": "Polygon", "coordinates": [ [ [ 13.200166666666666, 52.5402 ], [ 13.312333333333333, 52.5402 ], [ 13.312333333333333, 52.6076 ], [ 13.200166666666666, 52.6076 ], [ 13.200166666666666, 52.5402 ] ] ] } },
{ "type": "Feature", "properties": { "PLZ": "10135" }, "geometry": { "type": "Polygon", "coordinates": [ [ [ 13.312333333333333, 52.5402 ], [ 13.4245, 52.5402 ], [ 13.4245, 52.6076 ], [ 13.312333333333333, 52.6076 ], [ 13.312333333333333, 52.5402 ] ] ] } },
{ "type": "Feature", "properties": { "PLZ": "10136" }, "geometry": { "type": "Polygon", "coordinates": [ [ [ 13.4245, 52.5402 ], [ 13.536666666666665, 52.5402 ], [ 13.536666666666665, 52.6076 ], [ 13.4245, 52.6076 ], [ 13.4245, 52.5402 ] ] ] } },
{ "type": "Feature", "properties": { "PLZ": "10137" }, "geometry": { "type": "Polygon", "coordinates": [ [ [ 13.536666666666665, 52.5402 ], [ 13.648833333333332, 52.5402 ], [ 13.648833333333332, 52.6076 ], [ 13.536666666666665, 52.6076 ], [ 13.536666666666665, 52.5402 ] ] ] } },
{ "type": "Feature", "properties": { "PLZ": "10138" }, "geometry": { "type": "Polygon", "coordinates": [ [ [ 13.648833333333332, 52.5402 ], [ 13.761, 52.5402 ], [ 13.761, 52.6076 ], [ 13.648833333333332, 52.6076 ], [ 13.648833333333332, 52.5402 ] ] ] } },
{ "type": "Feature", "properties": { "PLZ": "10139" }, "geometry": { "type": "Polygon", "coordinates": [ [ [ 13.088, 52.6076 ], [ 13.200166666666666, 52.6076 ], [ 13.200166666666666, 52.675 ], [ 13.088, 52.675 ], [ 13.088, 52.6076 ] ] ] } },
{ "type": "Feature", "properties": { "PLZ": "10140" }, "geometry": { "type": "Polygon", "coordinates": [ [ [ 13.200166666666666, 52.6076 ], [ 13.312333333333333, 52.6076 ], [ 13.312333333333333, 52.675 ], [ 13.200166666666666, 52.675 ], [ 13.200166666666666, 52.6076 ] ] ] } },
{ "type": "Feature", "properties": { "PLZ": "10141" }, "geometry": { "type": "Polygon", "coordinates": [ [ [ 13.312333333333333, 52.6076 ], [ 13.4245, 52.6076 ], [ 13.4245, 52.675 ], [ 13.312333333333333, 52.675 ], [ 13.312333333333333, 52.6076 ] ] ] } },
{ "type": "Feature", "properties": { "PLZ": "10142" }, "geometry": { "type": "Polygon", "coordinates": [ [ [ 13.4245, 52.6076 ], [ 13.536666666666665, 52.6076 ], [ 13.536666666666665, 52.675 ], [ 13.4245, 52.675 ], [ 13.4245, 52.6076 ] ] ] } },
{ "type": "Feature", "properties": { "PLZ": "10143" }, "geometry": { "type": "Polygon", "coordinates": [ [ [ 13.536666666666665, 52.6076 ], [ 13.648833333333332, 52.6076 ], [ 13.648833333333332, 52.675 ], [ 13.536666666666665, 52.675 ], [ 13.536666666666665, 52.6076 ] ] ] } },
{ "type": "Feature", "properties": { "PLZ": "10144" }, "geometry": { "type": "Polygon", "coordinates": [ [ [ 13.648833333333332, 52.6076 ], [ 13.761, 52.6076 ], [ 13.761, 52.675 ], [ 13.648833333333332, 52.675 ], [ 13.648833333333332, 52.6076 ] ] ] } }
]
}
